BEIDOU-2 IGSO-1 (C06)   
1 36828U 10036A   26076.62867351 -.00000124  00000+0  00000+0 0  9992
2 36828  54.2920 163.7917 0054795 219.6142 122.0914  1.00249163 57175
BEIDOU-2 G4 (C04)       
1 37210U 10057A   26076.80921902 -.00000108  00000+0  00000+0 0  9996
2 37210   3.4182  69.4632 0007980 213.2367 344.0292  1.00272112 56372
BEIDOU-2 IGSO-2 (C07)   
1 37256U 10068A   26076.80805678 -.00000164  00000+0  00000+0 0  9991
2 37256  47.7094 272.9606 0047558 212.8612  86.6902  1.00254979 55872
BEIDOU-2 IGSO-3 (C08)   
1 37384U 11013A   26075.84191642 -.00000155  00000+0  00000+0 0  9996
2 37384  62.2875  41.0240 0034756 190.0150 353.3121  1.00290880 54734
BEIDOU-2 IGSO-4 (C09)   
1 37763U 11038A   26076.62848383 -.00000072  00000+0  00000+0 0  9990
2 37763  54.5886 166.5031 0155797 231.1490  97.7902  1.00263196 53729
BEIDOU-2 IGSO-5 (C10)   
1 37948U 11073A   26076.64230686 -.00000098  00000+0  00000+0 0  9995
2 37948  47.8458 272.6750 0109067 220.9059   7.8559  1.00269385 52216
BEIDOU-2 G5 (C05)       
1 38091U 12008A   26076.78911226  .00000061  00000+0  00000+0 0  9994
2 38091   3.3439  70.2245 0013574 257.5793 190.3484  1.00270644 51451
BEIDOU-2 M3 (C11)       
1 38250U 12018A   26073.14721841 -.00000025  00000+0  00000+0 0  9992
2 38250  55.8387 308.0798 0021028 279.8412  79.9804  1.86230226 94175
BEIDOU-2 M4 (C12)       
1 38251U 12018B   26076.30113986 -.00000016  00000+0  00000+0 0  9999
2 38251  55.7365 307.1949 0012223 287.3957  72.5338  1.86229927 94238
BEIDOU-2 M6 (C14)       
1 38775U 12050B   26076.54820638  .00000020  00000+0  00000+0 0  9995
2 38775  56.4656  65.9226 0014228 343.0183  16.9490  1.86230894 91609
BEIDOU-2 G6 (C02)       
1 38953U 12059A   26076.58023806 -.00000172  00000+0  00000+0 0  9997
2 38953   4.1876  74.4982 0010520 307.2464  86.2776  1.00274996 48998
BEIDOU-3S IGSO-1S (C31) 
1 40549U 15019A   26076.58240473 -.00000142  00000+0  00000+0 0  9998
2 40549  49.3668 296.5655 0036030 190.6028 354.0096  1.00271039 40156
BEIDOU-3S M2S (C58)     
1 40748U 15037A   26074.89414427 -.00000015  00000+0  00000+0 0  9992
2 40748  54.9529 305.2596 0008424 278.4084  81.5573  1.86232225 72380
BEIDOU-3S M1S (C57)     
1 40749U 15037B   26076.18675133 -.00000014  00000+0  00000+0 0  9999
2 40749  54.9481 305.2027 0004635  36.8240 323.2693  1.86254736 72411
BEIDOU-2 IGSO-6 (C13)   
1 41434U 16021A   26075.86902463 -.00000135  00000+0  00000+0 0  9992
2 41434  60.1040  38.9564 0059205 233.2901 310.8173  1.00276097 36559
BEIDOU-2 G7 (C03)       
1 41586U 16037A   26076.87127481 -.00000351  00000+0  00000+0 0  9998
2 41586   1.4927  68.3547 0007684 347.3507 183.9630  1.00273404  5978
BEIDOU-3 M1 (C19)       
1 43001U 17069A   26075.23972936  .00000024  00000+0  00000+0 0  9996
2 43001  56.6118  66.1446 0012471 310.6552  49.2568  1.86231291 56874
BEIDOU-3 M2 (C20)       
1 43002U 17069B   26074.64129586  .00000024  00000+0  00000+0 0  9996
2 43002  56.6103  66.1997 0009871 329.6496  30.3152  1.86230978 56856
BEIDOU-3 M7 (C27)       
1 43107U 18003A   26074.92009756 -.00000017  00000+0  00000+0 0  9991
2 43107  54.4104 305.5685 0004847  71.9317 288.1816  1.86232720 55610
BEIDOU-3 M8 (C28)       
1 43108U 18003B   26075.93965450 -.00000016  00000+0  00000+0 0  9995
2 43108  54.4024 305.5153 0002878 295.3667  64.6646  1.86231214 55642
BEIDOU-3 M4 (C22)       
1 43207U 18018A   26074.77104337  .00000024  00000+0  00000+0 0  9999
2 43207  56.5703  66.2272 0007030 351.0447   8.9646  1.86231156 55009
BEIDOU-3 M3 (C21)       
1 43208U 18018B   26075.37444012  .00000024  00000+0  00000+0 0  9994
2 43208  56.5704  66.2113 0010097 320.4745  39.4720  1.86231178 55010
BEIDOU-3 M9 (C29)       
1 43245U 18029A   26075.05475697 -.00000012  00000+0  00000+0 0  9993
2 43245  54.2780 303.2072 0000939  29.0343 331.0307  1.86228401 54160
BEIDOU-3 M10 (C30)      
1 43246U 18029B   26075.52654003 -.00000012  00000+0  00000+0 0  9996
2 43246  54.2749 303.2175 0005199  26.3275 333.7589  1.86229372 54155
BEIDOU-2 IGSO-7 (C16)   
1 43539U 18057A   26076.63332953 -.00000125  00000+0  00000+0 0  9997
2 43539  55.1853 163.8604 0101255 236.9261 115.2262  1.00279500 28209
BEIDOU-3 M5 (C23)       
1 43581U 18062A   26075.75065793  .00000001  00000+0  00000+0 0  9999
2 43581  54.0870 185.4469 0002582 299.4222  60.5388  1.86228980 51911
BEIDOU-3 M6 (C24)       
1 43582U 18062B   26076.15060338  .00000005  00000+0  00000+0 0  9999
2 43582  54.0868 185.4223 0005806  40.7715 319.2603  1.86227837 51928
BEIDOU-3 M12 (C26)      
1 43602U 18067A   26074.47814054 -.00000009  00000+0  00000+0 0  9997
2 43602  54.1821 184.2178 0008481  39.2265 320.8211  1.86227956 51376
BEIDOU-3 M11 (C25)      
1 43603U 18067B   26076.76077225  .00000012  00000+0  00000+0 0  9996
2 43603  54.1789 184.1042 0004818  31.1213 328.9013  1.86227375 51445
BEIDOU-3 M13 (C32)      
1 43622U 18072A   26075.64255759  .00000022  00000+0  00000+0 0  9990
2 43622  56.5444  65.7114 0009057 308.8074  51.1302  1.86231332 50930
BEIDOU-3 M14 (C33)      
1 43623U 18072B   26075.50801789  .00000022  00000+0  00000+0 0  9996
2 43623  56.5462  65.7104 0006603 330.2962  29.6852  1.86231253 50920
BEIDOU-3 M16 (C35)      
1 43647U 18078A   26074.05390176 -.00000015  00000+0  00000+0 0  9993
2 43647  54.1747 303.2868 0008460  32.7335 327.3774  1.86232398 50409
BEIDOU-3 M15 (C34)      
1 43648U 18078B   26076.33098644 -.00000013  00000+0  00000+0 0  9990
2 43648  54.1687 303.2082 0005379  40.2249 319.8743  1.86232474 50468
BEIDOU-3 G1 (C59)       
1 43683U 18085A   26076.87656245 -.00000275  00000+0  00000+0 0  9993
2 43683   2.8423  99.9795 0001602  19.3382 151.6723  1.00274218 27142
BEIDOU-3 M17 (C36)      
1 43706U 18093A   26075.90327916  .00000003  00000+0  00000+0 0  9999
2 43706  54.1704 185.4273 0007429 294.8002  31.2352  1.86228386 49812
BEIDOU-3 M18 (C37)      
1 43707U 18093B   26075.81627458  .00000002  00000+0  00000+0 0  9993
2 43707  54.1715 185.4223 0006136 336.3135  23.6453  1.86226816 49816
BEIDOU-3 IGSO-1 (C38)   
1 44204U 19023A   26076.80063897 -.00000196  00000+0  00000+0 0  9996
2 44204  58.5730  38.5901 0025387 236.1401 307.6900  1.00266806  6293
BEIDOU-2 G8 (C01)       
1 44231U 19027A   26076.87742912 -.00000245  00000+0  00000+0 0  9994
2 44231   1.4249  74.2686 0011429 275.4562 286.1085  1.00272440 25161
BEIDOU-3 IGSO-2 (C39)   
1 44337U 19035A   26057.68879618 -.00000176  00000+0  00000+0 0  9995
2 44337  55.2338 159.8353 0038734 206.4752 153.7223  1.00247364 24561
BEIDOU-3 M24 (C46)      
1 44542U 19061A   26076.42305706  .00000008  00000+0  00000+0 0  9990
2 44542  54.3986 185.8221 0008388  17.7952 342.2228  1.86229161 44086
BEIDOU-3 M23 (C45)      
1 44543U 19061B   26073.81282775 -.00000011  00000+0  00000+0 0  9996
2 44543  54.3971 185.8787 0004914  10.0164 312.1674  1.86227424 44036
BEIDOU-3 IGSO-3 (C40)   
1 44709U 19073A   26069.98346678 -.00000143  00000+0  00000+0 0  9995
2 44709  54.9673 281.9576 0040728 188.7089 171.2538  1.00267242 23477
BEIDOU-3 M22 (C44)      
1 44793U 19078A   26075.18830765 -.00000013  00000+0  00000+0 0  9993
2 44793  54.0196 303.1011 0007422  38.0881 322.0239  1.86232319 42918
BEIDOU-3 M21 (C43)      
1 44794U 19078B   26076.40203824 -.00000013  00000+0  00000+0 0  9990
2 44794  53.9925 303.0215 0005426  33.3872 326.7061  1.86227971 42947
BEIDOU-3 M19 (C41)      
1 44864U 19090A   26076.10727720  .00000021  00000+0  00000+0 0  9993
2 44864  56.4792  65.8326 0020410 292.1173  66.9369  1.86231664 42511
BEIDOU-3 M20 (C42)      
1 44865U 19090B   26073.30245928  .00000019  00000+0  00000+0 0  9995
2 44865  56.4780  65.9600 0017869 303.3279  64.8469  1.86231612 42455
BEIDOU-3 G2 (C60)       
1 45344U 20017A   26076.86468906 -.00000137  00000+0  00000+0 0  9998
2 45344   2.6798  45.8024 0002690 324.9722 195.9958  1.00271772 22347
BEIDOU-3 G3 (C61)       
1 45807U 20040A   26076.87171580 -.00000351  00000+0  00000+0 0  9996
2 45807   2.2211  67.1581 0004834 326.2925 206.3038  1.00268662 21152
BEIDOU-3 G4 (C62)       
1 56564U 23066A   26072.17398353 -.00000111  00000+0  00000+0 0  9991
2 56564   0.6336 312.1088 0002647 153.4351 287.9442  1.00272296 10433
BEIDOU-3 M28 (C50)      
1 58654U 23207A   26075.94249714  .00000019  00000+0  00000+0 0  9990
2 58654  55.6725  65.4133 0004991 307.1364  52.8353  1.86229755 15129
BEIDOU-3 M26 (C48)      
1 58655U 23207B   26075.73998216  .00000019  00000+0  00000+0 0  9996
2 58655  55.6742  65.4064 0005706 292.2017  67.7558  1.86229663 15104
BEIDOU-3 M25 (C47)      
1 61186U 24168B   26076.37683426 -.00000016  00000+0  00000+0 0  9999
2 61186  54.5545 305.4341 0004066 319.1342 224.8448  1.86230124 10078
BEIDOU-3 M27 (C49)      
1 61187U 24168C   26076.64385934 -.00000016  00000+0  00000+0 0  9993
2 61187  54.5499 305.4080 0002894  23.8177 114.1837  1.86230246  7556
